GLOBALSTAR M045         
1 25676U 99019A   25283.10960316 -.00000054  00000+0  35144-3 0  9999
2 25676  51.9992 337.7160 0000599 105.3072 271.5365 12.27066183207500
GLOBALSTAR M019         
1 25677U 99019B   25282.99085933 -.00000150  00000+0 -63140-3 0  9994
2 25677  51.9849 116.4968 0001307 148.4330   7.1265 12.13876311199085
GLOBALSTAR M044         
1 25678U 99019C   25282.91935269 -.00000083  00000+0  84622-5 0  9997
2 25678  51.9958  82.4073 0005294 258.2278 269.8704 11.90260836184987
GLOBALSTAR M042         
1 25679U 99019D   25282.91916881 -.00000116  00000+0 -22163-3 0  9995
2 25679  52.0001  87.0587 0003329 159.0405   7.4104 12.22089060199280
GLOBALSTAR M025         
1 25770U 99031A   25282.39897573 -.00000082  00000+0 -44172-3 0  9995
2 25770  51.9803 254.6917 0002388 342.7094 187.4897 11.22558110494538
GLOBALSTAR M049         
1 25771U 99031B   25283.03779661 -.00000070  00000+0 -16090-3 0  9990
2 25771  51.9876 293.7496 0002638 212.8238 147.2395 11.12119911130209
GLOBALSTAR M047         
1 25772U 99031C   25283.12582102 -.00000067  00000+0  69879-4 0  9992
2 25772  51.9823 279.5372 0016470  99.3758 260.8911 11.31930201484124
GLOBALSTAR M052         
1 25773U 99031D   25282.52946125 -.00000047  00000+0  62884-3 0  9991
2 25773  51.9888  41.9603 0002428  19.3908  62.9151 11.15060801491263
